      2.10          N: GNSS NAV DATA                        RINEX VERSION / TYPE
fic2rin                                 12/01/2020 00:17:04 PGM / RUN BY / DATE
                                                            END OF HEADER
 4 20 11 30 14  0  0.0-1.601320691407e-04-3.410605131648e-12 0.000000000000e+00
    1.530000000000e+02-1.325000000000e+01 4.990922177656e-09 6.050436568055e-01
   -7.618218660355e-07 9.444893803447e-04 5.001202225685e-06 5.153599298477e+03
    1.368000000000e+05-2.607703208923e-08 1.813082305790e+00-3.725290298462e-08
    9.596999078790e-01 2.786250000000e+02-3.054356853103e+00-8.178197797622e-09
   -3.482287908412e-10 1.000000000000e+00 2.134000000000e+03 0.000000000000e+00
    2.400000000000e+00 0.000000000000e+00-4.190951585770e-09 6.650000000000e+02
    1.296000000000e+05 4.000000000000e+00
30 20 11 30 14  0  0.0-3.444598987699e-04-6.480149750132e-12 0.000000000000e+00
    8.600000000000e+01 3.346875000000e+01 4.690195365463e-09-1.747430957479e+00
    1.640990376472e-06 4.718953161500e-03 1.114793121815e-05 5.153784164429e+03
    1.368000000000e+05-7.264316082001e-08 2.856734359938e+00-8.009374141693e-08
    9.379518063719e-01 1.519687500000e+02-2.840337409420e+00-7.896757503075e-09
   -4.864488339751e-10 1.000000000000e+00 2.134000000000e+03 0.000000000000e+00
    2.400000000000e+00 0.000000000000e+00 3.725290298462e-09 8.600000000000e+01
    1.296000000000e+05 4.000000000000e+00
22 20 11 30 14  0  0.0-7.224339060485e-04 5.684341886081e-12 0.000000000000e+00
    4.800000000000e+01 2.718750000000e+00 5.307363930154e-09 7.804118334568e-02
    1.676380634308e-07 6.742622121237e-03 9.495764970779e-06 5.153665863037e+03
    1.368000000000e+05-1.862645149231e-08 6.398004515826e-01-4.842877388000e-08
    9.327893835191e-01 1.854375000000e+02-1.067011530662e+00-8.342847513086e-09
    6.643133856047e-10 1.000000000000e+00 2.134000000000e+03 0.000000000000e+00
    2.400000000000e+00 0.000000000000e+00-1.816079020500e-08 4.800000000000e+01
    1.296000000000e+05 4.000000000000e+00
12 20 11 30 14  0  0.0 3.331247717142e-05-5.229594535194e-12 0.000000000000e+00
    8.000000000000e+01 1.236875000000e+02 4.014810090098e-09-2.434667398218e+00
    6.455928087234e-06 8.031485951506e-03 4.921108484268e-06 5.153599634171e+03
    1.368000000000e+05 5.215406417847e-08-2.338123007568e+00-3.911554813385e-08
    9.760195782874e-01 2.933750000000e+02 1.167644051736e+00-7.796039022032e-09
    2.821546100149e-10 1.000000000000e+00 2.134000000000e+03 0.000000000000e+00
    2.400000000000e+00 0.000000000000e+00-1.257285475731e-08 8.000000000000e+01
    1.296000000000e+05 4.000000000000e+00
26 20 11 30 14  0  0.0 7.115304470062e-06 5.911715561524e-12 0.000000000000e+00
    7.500000000000e+01 1.490312500000e+02 4.665551481803e-09 2.989000360320e+00
    7.716938853264e-06 5.353555199690e-03 5.789101123810e-06 5.153724378586e+03
    1.368000000000e+05-3.166496753693e-08-2.448168873980e+00-5.401670932770e-08
    9.444298182871e-01 2.610312500000e+02 2.150528124414e-01-8.222842514396e-09
    2.710827202548e-10 1.000000000000e+00 2.134000000000e+03 0.000000000000e+00
    2.400000000000e+00 0.000000000000e+00 6.984919309616e-09 7.500000000000e+01
    1.296000000000e+05 4.000000000000e+00
25 20 11 30 14  0  0.0 3.129942342639e-05 6.821210263297e-12 0.000000000000e+00
    7.500000000000e+01 1.284375000000e+02 4.226247468742e-09-2.735036662627e+00
    6.671994924545e-06 9.385851095431e-03 5.340203642845e-06 5.153705509186e+03
    1.368000000000e+05 3.352761268616e-08-2.409392711780e+00-4.097819328308e-08
    9.634049337054e-01 2.783125000000e+02 9.289733163589e-01-7.861756045124e-09
    2.914407111040e-10 1.000000000000e+00 2.134000000000e+03 0.000000000000e+00
    2.400000000000e+00 0.000000000000e+00 5.587935447693e-09 7.500000000000e+01
    1.296000000000e+05 4.000000000000e+00
13 20 11 30 14  0  0.0 7.016630843282e-05 3.865352482535e-12 0.000000000000e+00
    6.700000000000e+01-1.843750000000e+01 4.831986985939e-09 4.227860591021e-01
   -8.102506399155e-07 4.840554203838e-03 5.597248673439e-06 5.153678104401e+03
    1.368000000000e+05 5.587935447693e-09 1.909536146199e+00 2.421438694000e-08
    9.675098759841e-01 2.734687500000e+02 1.049698091225e+00-8.165697276925e-09
   -4.196603376804e-10 1.000000000000e+00 2.134000000000e+03 0.000000000000e+00
    2.400000000000e+00 0.000000000000e+00-1.164153218269e-08 6.700000000000e+01
    1.296000000000e+05 4.000000000000e+00
21 20 11 30 14  0  0.0 7.322244346142e-05 3.637978807092e-12 0.000000000000e+00
    5.400000000000e+01-1.441250000000e+02 4.350538360242e-09 1.374122947085e+00
   -7.908791303635e-06 2.395546040498e-02 8.335337042809e-06 5.153761972427e+03
    1.368000000000e+05 3.501772880554e-07-3.844766116570e-01-5.401670932770e-07
    9.556330278029e-01 2.191875000000e+02-1.237627510096e+00-7.966046103509e-09
   -3.500145795122e-11 1.000000000000e+00 2.134000000000e+03 0.000000000000e+00
    2.400000000000e+00 0.000000000000e+00-1.024454832077e-08 5.400000000000e+01
    1.296000000000e+05 4.000000000000e+00
20 20 11 30 14  0  0.0 5.258042365313e-04-2.273736754432e-13 0.000000000000e+00
    2.800000000000e+01 5.843750000000e+00 5.061996566761e-09-1.638616897348e+00
    2.142041921616e-07 5.857655545697e-03 1.000799238682e-05 5.153663734436e+03
    1.368000000000e+05-7.823109626770e-08 5.929749205856e-01-5.774199962616e-08
    9.361429227960e-01 1.759375000000e+02 2.773664069465e+00-8.139981920063e-09
    6.928860043404e-10 1.000000000000e+00 2.134000000000e+03 0.000000000000e+00
    2.400000000000e+00 0.000000000000e+00-8.381903171539e-09 2.800000000000e+01
    1.296000000000e+05 4.000000000000e+00
17 20 11 30 14  0  0.0 3.608772531152e-04 5.115907697473e-12 0.000000000000e+00
    1.400000000000e+01-4.737500000000e+01 4.289821545429e-09 9.613817823701e-01
   -2.656131982803e-06 1.363135187421e-02 1.329928636551e-06 5.153502515793e+03
    1.368000000000e+05-1.806765794754e-07-1.302407911592e+00-1.136213541031e-07
    9.829733911416e-01 3.653125000000e+02-1.609146917348e+00-8.402850012431e-09
   -1.292910997790e-10 1.000000000000e+00 2.134000000000e+03 0.000000000000e+00
    2.400000000000e+00 0.000000000000e+00-1.117587089539e-08 1.400000000000e+01
    1.296000000000e+05 4.000000000000e+00
11 20 11 30 14  0  0.0-9.432667866349e-05 1.057287590811e-11 0.000000000000e+00
    3.900000000000e+01-1.418437500000e+02 5.583089700953e-09-1.661129756836e+00
   -7.048249244690e-06 1.553360477556e-02 4.813075065613e-06 5.153729507446e+03
    1.368000000000e+05-3.054738044739e-07-7.922026796100e-01 2.421438694000e-07
    9.139368386921e-01 2.637500000000e+02 2.070622472457e+00-8.763222166235e-09
   -1.921508609975e-10 1.000000000000e+00 2.134000000000e+03 0.000000000000e+00
    2.400000000000e+00 6.300000000000e+01-1.257285475731e-08 3.900000000000e+01
    1.296000000000e+05 4.000000000000e+00
24 20 11 30 14  0  0.0 5.736947059631e-06-4.547473508865e-13 0.000000000000e+00
    6.300000000000e+01 2.071875000000e+01 4.918061999880e-09-7.722782942051e-01
    1.041218638420e-06 1.060529763345e-02 9.940937161446e-06 5.153629785538e+03
    1.368000000000e+05 1.639127731323e-07 2.761650777840e+00 2.291053533554e-07
    9.359658702097e-01 1.745937500000e+02 7.038522774497e-01-8.168554538799e-09
   -6.057395171966e-10 1.000000000000e+00 2.134000000000e+03 0.000000000000e+00
    3.400000000000e+00 0.000000000000e+00 2.793967723846e-09 6.300000000000e+01
    1.296000000000e+05 4.000000000000e+00
28 20 11 30 14  0  0.0 6.490871310234e-04-4.661160346586e-12 0.000000000000e+00
    7.800000000000e+01 1.197500000000e+02 4.018024509706e-09 1.830282838673e+00
    6.016343832016e-06 1.833225751761e-02 4.826113581657e-06 5.153669044495e+03
    1.368000000000e+05 3.390014171600e-07-2.315682858035e+00-1.639127731323e-07
    9.752139858741e-01 2.875000000000e+02-1.371120173139e+00-7.750322832055e-09
    2.603679882289e-10 1.000000000000e+00 2.134000000000e+03 0.000000000000e+00
    2.400000000000e+00 0.000000000000e+00-1.117587089539e-08 7.800000000000e+01
    1.296000000000e+05 4.000000000000e+00
23 20 11 30 14  0  0.0 1.058760099113e-04 3.751665644813e-12 0.000000000000e+00
    4.900000000000e+01 1.250000000000e+01 4.563761527558e-09-1.146760016941e+00
    6.482005119324e-07 1.103728660382e-03 9.229406714439e-06 5.153629558563e+03
    1.368000000000e+05-2.793967723846e-08 7.074592804501e-01 1.490116119385e-08
    9.622992046302e-01 2.040000000000e+02 2.165316889088e+00-7.873185092618e-09
    6.360979246032e-10 1.000000000000e+00 2.134000000000e+03 0.000000000000e+00
    2.400000000000e+00 0.000000000000e+00-8.381903171539e-09 8.170000000000e+02
    1.296000000000e+05 4.000000000000e+00
18 20 11 30 14  0  0.0 3.275135532022e-04 4.320099833421e-12 0.000000000000e+00
    2.900000000000e+01-1.151562500000e+02 4.103385208179e-09-8.812372710010e-01
   -6.103888154030e-06 1.174989272840e-03 9.648501873016e-06 5.153707862854e+03
    1.368000000000e+05 7.450580596924e-09-2.911912440727e-01-7.450580596924e-09
    9.664082855042e-01 1.942500000000e+02 2.955512249063e+00-7.774252400246e-09
    5.393081786361e-11 1.000000000000e+00 2.134000000000e+03 0.000000000000e+00
    2.400000000000e+00 0.000000000000e+00-8.381903171539e-09 5.410000000000e+02
    1.296000000000e+05 4.000000000000e+00
14 20 11 30 14  0  0.0 4.908489063382e-05 1.341504685115e-11 0.000000000000e+00
    1.720000000000e+02 1.280937500000e+02 4.379468136712e-09-1.087602061666e+00
    6.701797246933e-06 1.561490353197e-04 5.481764674187e-06 5.153739473343e+03
    1.368000000000e+05 5.587935447693e-09-2.362480254191e+00 1.303851604462e-08
    9.595775186896e-01 2.735000000000e+02 1.730287478402e+00-8.100694569301e-09
    3.042983895351e-10 1.000000000000e+00 2.134000000000e+03 0.000000000000e+00
    3.400000000000e+00 6.300000000000e+01-2.328306436539e-09 1.720000000000e+02
    1.296000000000e+05 4.000000000000e+00
